[{"OBJECT_NAME":"TERRASAR-X","OBJECT_ID":"2007-026A","EPOCH":"2026-03-09T12:47:32.153856","MEAN_MOTION":15.19145495,"ECCENTRICITY":0.0001671,"INCLINATION":97.4473,"RA_OF_ASC_NODE":77.6567,"ARG_OF_PERICENTER":89.1735,"MEAN_ANOMALY":270.9691,"EPHEMERIS_TYPE":0,"CLASSIFICATION_TYPE":"U","NORAD_CAT_ID":31698,"ELEMENT_SET_NO":999,"REV_AT_EPOCH":3809,"BSTAR":0.00011254,"MEAN_MOTION_DOT":2.297e-5,"MEAN_MOTION_DDOT":0},{"OBJECT_NAME":"STARLINK-30239","OBJECT_ID":"2023-096B","EPOCH":"2026-03-09T22:00:01.999584","MEAN_MOTION":15.17291033,"ECCENTRICITY":0.00011539,"INCLINATION":42.9992,"RA_OF_ASC_NODE":221.2546,"ARG_OF_PERICENTER":297.0499,"MEAN_ANOMALY":275.4383,"EPHEMERIS_TYPE":0,"CLASSIFICATION_TYPE":"U","NORAD_CAT_ID":57291,"ELEMENT_SET_NO":999,"REV_AT_EPOCH":578,"BSTAR":0.0046931464,"MEAN_MOTION_DOT":0.00096291,"MEAN_MOTION_DDOT":0}]
